{
"type": "FeatureCollection",
"name": "chenab_rivers",
"crs": { "type": "name", "properties": { "name": "urn:ogc:def:crs:OGC:1.3:CRS84" } },
"features": [
{ "type": "Feature", "properties": { "OBJECTID": 589144.0, "HYRIV_ID": 40589144, "NEXT_DOWN": 40590467, "MAIN_RIV": 41023100, "LENGTH_KM": 2.279999971389771, "DIST_DN_KM": 1709.699951171875, "DIST_UP_KM": 566.0, "CATCH_SKM": 14.090000152587891, "UPLAND_SKM": 25949.400390625, "ENDORHEIC": 0, "DIS_AV_CMS": 876.46600341796875, "ORD_STRA": 6, "ORD_CLAS": 3, "ORD_FLOW": 4, "HYBAS_L12": 4120683600.0, "Shape_Leng": 0.021844336196295999 }, "geometry": { "type": "MultiLineString", "coordinates": [ [ [ 74.483333333333363, 32.687499999999794 ], [ 74.481249999999733, 32.685416666666164 ] ] ] } },
{ "type": "Feature", "properties": { "OBJECTID": 589695.0, "HYRIV_ID": 40589695, "NEXT_DOWN": 40590467, "MAIN_RIV": 41023100, "LENGTH_KM": 10.699999809265137, "DIST_DN_KM": 1709.5999755859375, "DIST_UP_KM": 183.30000305175781, "CATCH_SKM": 37.950000762939453, "UPLAND_SKM": 2911.800048828125, "ENDORHEIC": 0, "DIS_AV_CMS": 51.937000274658203, "ORD_STRA": 5, "ORD_CLAS": 4, "ORD_FLOW": 5, "HYBAS_L12": 4120683700.0, "Shape_Leng": 0.10964045207909701 }, "geometry": { "type": "MultiLineString", "coordinates": [ [ [ 74.483333333333363, 32.685416666666164 ], [ 74.481249999999733, 32.685416666666164 ] ] ] } },
{ "type": "Feature", "properties": { "OBJECTID": 590466.0, "HYRIV_ID": 40590466, "NEXT_DOWN": 40590589, "MAIN_RIV": 41023100, "LENGTH_KM": 1.049999952316284, "DIST_DN_KM": 1699.9000244140625, "DIST_UP_KM": 6.0, "CATCH_SKM": 11.199999809265137, "UPLAND_SKM": 11.199999809265137, "ENDORHEIC": 0, "DIS_AV_CMS": 0.071000002324580994, "ORD_STRA": 1, "ORD_CLAS": 4, "ORD_FLOW": 8, "HYBAS_L12": 4120686050.0, "Shape_Leng": 0.010416666666686 }, "geometry": { "type": "MultiLineString", "coordinates": [ [ [ 74.404166666666384, 32.652083333332818 ], [ 74.410416666666407, 32.652083333332818 ], [ 74.410416666666407, 32.647916666666156 ] ] ] } },
{ "type": "Feature", "properties": { "OBJECTID": 590467.0, "HYRIV_ID": 40590467, "NEXT_DOWN": 40590589, "MAIN_RIV": 41023100, "LENGTH_KM": 9.6800003051757812, "DIST_DN_KM": 1700.0999755859375, "DIST_UP_KM": 575.70001220703125, "CATCH_SKM": 55.110000610351562, "UPLAND_SKM": 28916.30078125, "ENDORHEIC": 0, "DIS_AV_CMS": 924.78900146484375, "ORD_STRA": 6, "ORD_CLAS": 3, "ORD_FLOW": 4, "HYBAS_L12": 4120686050.0, "Shape_Leng": 0.095710678118715004 }, "geometry": { "type": "MultiLineString", "coordinates": [ [ [ 74.481249999999733, 32.685416666666164 ], [ 74.472916666666464, 32.67708333333281 ], [ 74.464583333333138, 32.67708333333281 ], [ 74.460416666666362, 32.672916666666147 ], [ 74.45208333333315, 32.681249999999515 ], [ 74.443749999999767, 32.681249999999515 ], [ 74.439583333333104, 32.67708333333281 ], [ 74.435416666666441, 32.67708333333281 ], [ 74.41458333333307, 32.656249999999481 ], [ 74.41458333333307, 32.652083333332818 ], [ 74.410416666666407, 32.647916666666156 ] ] ] } },
{ "type": "Feature", "properties": { "OBJECTID": 590589.0, "HYRIV_ID": 40590589, "NEXT_DOWN": 40590830, "MAIN_RIV": 41023100, "LENGTH_KM": 0.61000001430511497, "DIST_DN_KM": 1699.5, "DIST_UP_KM": 576.29998779296875, "CATCH_SKM": 0.36000001430511502, "UPLAND_SKM": 28927.900390625, "ENDORHEIC": 0, "DIS_AV_CMS": 924.6409912109375, "ORD_STRA": 6, "ORD_CLAS": 3, "ORD_FLOW": 4, "HYBAS_L12": 4120686050.0, "Shape_Leng": 0.0058925565098719998 }, "geometry": { "type": "MultiLineString", "coordinates": [ [ [ 74.410416666666407, 32.647916666666156 ], [ 74.406249999999744, 32.643749999999507 ] ] ] } },
{ "type": "Feature", "properties": { "OBJECTID": 590829.0, "HYRIV_ID": 40590829, "NEXT_DOWN": 40591975, "MAIN_RIV": 41023100, "LENGTH_KM": 11.659999847412109, "DIST_DN_KM": 1691.9000244140625, "DIST_UP_KM": 19.0, "CATCH_SKM": 60.509998321533203, "UPLAND_SKM": 60.5, "ENDORHEIC": 0, "DIS_AV_CMS": 0.39800000190734902, "ORD_STRA": 1, "ORD_CLAS": 4, "ORD_FLOW": 7, "HYBAS_L12": 4120686050.0, "Shape_Leng": 0.11288284621682999 }, "geometry": { "type": "MultiLineString", "coordinates": [ [ [ 74.399999999999835, 32.712499999999487 ], [ 74.389583333333036, 32.702083333332801 ], [ 74.385416666666373, 32.702083333332801 ], [ 74.372916666666384, 32.689583333332827 ], [ 74.368749999999721, 32.689583333332827 ], [ 74.364583333333059, 32.685416666666164 ], [ 74.360416666666396, 32.685416666666164 ], [ 74.35208333333307, 32.67708333333281 ], [ 74.35208333333307, 32.668749999999498 ], [ 74.343749999999687, 32.66041666666613 ], [ 74.343749999999687, 32.656249999999481 ], [ 74.339583333333138, 32.652083333332818 ], [ 74.339583333333138, 32.647916666666156 ], [ 74.331249999999812, 32.639583333332801 ], [ 74.331249999999812, 32.635416666666138 ] ] ] } },
{ "type": "Feature", "properties": { "OBJECTID": 590830.0, "HYRIV_ID": 40590830, "NEXT_DOWN": 40591975, "MAIN_RIV": 41023100, "LENGTH_KM": 7.4499998092651376, "DIST_DN_KM": 1691.9000244140625, "DIST_UP_KM": 583.9000244140625, "CATCH_SKM": 30.190000534057617, "UPLAND_SKM": 28992.099609375, "ENDORHEIC": 0, "DIS_AV_CMS": 921.04101562499989, "ORD_STRA": 6, "ORD_CLAS": 3, "ORD_FLOW": 4, "HYBAS_L12": 4120686050.0, "Shape_Leng": 0.078451779686401005 }, "geometry": { "type": "MultiLineString", "coordinates": [ [ [ 74.406249999999744, 32.643749999999507 ], [ 74.385416666666373, 32.643749999999507 ], [ 74.38124999999971, 32.639583333332801 ], [ 74.368749999999721, 32.639583333332801 ], [ 74.364583333333059, 32.635416666666138 ], [ 74.331249999999812, 32.635416666666138 ] ] ] } },
{ "type": "Feature", "properties": { "OBJECTID": 591068.0, "HYRIV_ID": 40591068, "NEXT_DOWN": 40590830, "MAIN_RIV": 41023100, "LENGTH_KM": 9.8999996185302734, "DIST_DN_KM": 1699.300048828125, "DIST_UP_KM": 16.600000381469727, "CATCH_SKM": 33.979999542236328, "UPLAND_SKM": 34.0, "ENDORHEIC": 0, "DIS_AV_CMS": 0.221000000834465, "ORD_STRA": 1, "ORD_CLAS": 4, "ORD_FLOW": 7, "HYBAS_L12": 4120686050.0, "Shape_Leng": 0.101664562235828 }, "geometry": { "type": "MultiLineString", "coordinates": [ [ [ 74.495833333333081, 32.63124999999949 ], [ 74.485416666666396, 32.63124999999949 ], [ 74.481249999999733, 32.627083333332827 ], [ 74.477083333333184, 32.627083333332827 ], [ 74.472916666666464, 32.63124999999949 ], [ 74.468749999999687, 32.627083333332827 ], [ 74.435416666666441, 32.627083333332827 ], [ 74.431249999999778, 32.63124999999949 ], [ 74.427083333333115, 32.63124999999949 ], [ 74.41458333333307, 32.643749999999507 ], [ 74.406249999999744, 32.643749999999507 ] ] ] } },
{ "type": "Feature", "properties": { "OBJECTID": 591975.0, "HYRIV_ID": 40591975, "NEXT_DOWN": 40592499, "MAIN_RIV": 41023100, "LENGTH_KM": 8.1499996185302734, "DIST_DN_KM": 1683.9000244140625, "DIST_UP_KM": 591.9000244140625, "CATCH_SKM": 28.200000762939453, "UPLAND_SKM": 29080.80078125, "ENDORHEIC": 0, "DIS_AV_CMS": 917.8070068359375, "ORD_STRA": 6, "ORD_CLAS": 3, "ORD_FLOW": 4, "HYBAS_L12": 4120686050.0, "Shape_Leng": 0.081188672392693007 }, "geometry": { "type": "MultiLineString", "coordinates": [ [ [ 74.331249999999812, 32.635416666666138 ], [ 74.318749999999824, 32.635416666666138 ], [ 74.314583333333104, 32.63124999999949 ], [ 74.297916666666453, 32.63124999999949 ], [ 74.29374999999979, 32.627083333332827 ], [ 74.29374999999979, 32.622916666666164 ], [ 74.28958333333307, 32.618749999999459 ], [ 74.285416666666407, 32.618749999999459 ], [ 74.277083333333081, 32.610416666666147 ], [ 74.277083333333081, 32.602083333332835 ], [ 74.27500000000029, 32.6 ] ] ] } }
]
}
